OBJECT_NAME,OBJECT_ID,EPOCH,MEAN_MOTION,ECCENTRICITY,INCLINATION,RA_OF_ASC_NODE,ARG_OF_PERICENTER,MEAN_ANOMALY,EPHEMERIS_TYPE,CLASSIFICATION_TYPE,NORAD_CAT_ID,ELEMENT_SET_NO,REV_AT_EPOCH,BSTAR,MEAN_MOTION_DOT,MEAN_MOTION_DDOT
STARLINK-36288,2026-111S,2026-06-15T14:00:01.999872,15.62120495,.00008241,53.1595,159.9772,86.9622,248.7728,0,U,69164,999,529,-.31953893E-1,-.2487804E-1,0
STARLINK-37445,2026-111T,2026-06-15T14:00:01.999872,15.59525941,.00010121,53.1595,160.0409,88.4542,215.6850,0,U,69165,999,529,-.35293191E-1,-.2484451E-1,0
STARLINK-37491,2026-111U,2026-06-15T14:00:01.999872,15.68128432,.00008574,53.1595,159.8613,76.5105,315.8370,0,U,69166,999,529,-.26361635E-1,-.2598337E-1,0
STARLINK-37474,2026-111V,2026-06-14T11:49:42.803328,15.78142856,.00009138,53.1570,165.2100,76.2100,283.9024,0,U,69167,999,383,.13870743E-2,.248272E-2,0
STARLINK-37469,2026-111W,2026-06-15T05:49:26.370048,15.49330184,.0000582,53.1592,162.8072,104.9995,255.1079,0,U,69168,999,393,.63884E-3,.35268E-3,0
STARLINK-37515,2026-111X,2026-06-15T14:00:01.999872,15.64355089,.00006889,53.1595,159.8711,80.6513,306.4024,0,U,69169,999,529,-.29952423E-1,-.2540151E-1,0
STARLINK-37437,2026-111Y,2026-06-15T14:00:01.999872,15.68053831,.00012259,53.1596,159.7646,60.8624,18.4838,0,U,69170,999,529,-.2604173E-1,-.2564589E-1,0
STARLINK-37392,2026-111Z,2026-06-15T14:00:01.999872,15.63571104,.00006419,53.1599,159.8123,88.5492,326.7190,0,U,69171,999,529,-.2937286E-1,-.2430296E-1,0
STARLINK-37472,2026-111AA,2026-06-15T14:00:01.999872,15.49246166,.00007556,53.1594,160.1855,126.8608,104.0149,0,U,69172,999,529,.37753529E-3,.20558E-3,0
STARLINK-37461,2026-111AB,2026-06-15T07:10:38.735616,15.49333570,.0001239,53.1587,162.4449,82.1357,277.9792,0,U,69173,999,394,.43377E-3,.2377E-3,0
STARLINK-37333,2026-111AC,2026-06-15T14:00:01.999872,15.62174825,.00009528,53.1601,159.9976,93.2859,231.4588,0,U,69174,999,529,-.33024396E-1,-.2564612E-1,0
STARLINK-37385,2026-111AD,2026-06-15T06:59:35.763360,15.49322075,.0000824,53.1589,162.3951,102.0382,258.0720,0,U,69175,999,394,.41936E-3,.22954E-3,0
STARLINK-37414,2026-111AE,2026-06-15T14:00:01.999872,15.63352152,.00007024,53.1593,159.8238,85.6115,323.9141,0,U,69176,999,529,-.31277807E-1,-.2547295E-1,0
STRIX-7,2026-112A,2026-06-15T13:48:46.691424,15.01430136,.00232995,44.9056,200.9143,37.8980,322.3526,0,U,69177,999,363,.17182121E-3,.203E-4,0
SHENZHOU-23 (SZ-23),2026-113A,2026-06-15T12:07:40.302048,15.60745824,.00075512,41.4694,332.2368,63.8756,296.2859,0,U,69180,999,29311,.24514915E-3,.2072E-3,0
STARLINK-37380,2026-114A,2026-06-15T13:44:56.769792,15.78083039,.0001056,53.1574,210.5657,108.6276,251.4860,0,U,69182,999,451,.69313153E-3,.121557E-2,0
STARLINK-37089,2026-114B,2026-06-15T13:43:36.382368,15.78076171,.00016555,53.1577,210.5600,39.2393,320.8748,0,U,69183,999,451,.6941926E-3,.121711E-2,0
STARLINK-37428,2026-114C,2026-06-15T13:41:34.583424,15.78095022,.0001045,53.1576,210.5508,131.8946,228.2165,0,U,69184,999,451,.10879285E-2,.192896E-2,0
STARLINK-37237,2026-114D,2026-06-15T13:37:36.490944,15.78092393,.00005801,53.1577,210.5316,128.2398,231.8676,0,U,69185,999,451,.75583946E-3,.132848E-2,0
STARLINK-37365,2026-114E,2026-06-15T13:38:03.966144,15.78090764,.00013797,53.1577,210.5339,63.8343,296.2820,0,U,69186,999,451,.91219229E-3,.16099E-2,0
STARLINK-37209,2026-114F,2026-06-15T13:36:57.098592,15.78080817,.00008814,53.1577,210.5291,74.3039,285.8079,0,U,69187,999,451,.6348554E-3,.111132E-2,0
STARLINK-37359,2026-114G,2026-06-15T13:36:18.857088,15.78089582,.00009242,53.1578,210.5264,78.9105,281.2020,0,U,69188,999,451,.71193874E-3,.12496E-2,0
STARLINK-37440,2026-114H,2026-06-15T13:57:46.449504,15.79262628,.0001722,53.1587,209.8849,16.9537,343.1542,0,U,69189,999,452,-.52437194E-2,-.870239E-2,0
STARLINK-37282,2026-114J,2026-06-15T13:27:01.030176,15.78100133,.00017159,53.1575,210.4822,152.1116,207.9998,0,U,69190,999,451,.79907662E-3,.140667E-2,0
STARLINK-37422,2026-114K,2026-06-15T10:03:30.055104,15.80999095,.00012671,53.1579,211.0244,164.9839,195.1222,0,U,69191,999,449,.13541344E-2,.276916E-2,0
STARLINK-37424,2026-114L,2026-06-15T13:27:10.675872,15.78059279,.00067407,53.1572,210.4826,35.0959,325.0505,0,U,69192,999,451,.27229703E-3,.46936E-3,0
STARLINK-36666,2026-114M,2026-06-15T13:05:53.130912,15.80866751,.0001668,53.1574,210.3866,78.5703,281.5507,0,U,69193,999,451,-.74474053E-4,-.15369E-3,0
STARLINK-37355,2026-114N,2026-06-15T13:04:48.673056,15.80897845,.00010048,53.1569,210.3801,85.3689,274.7448,0,U,69194,999,451,.41643595E-3,.82374E-3,0
STARLINK-37166,2026-114P,2026-06-15T13:02:38.987520,15.80934711,.00009397,53.1569,210.3699,71.4909,288.6216,0,U,69195,999,451,.86219403E-3,.173423E-2,0
