STARLINK-36288          
1 69164U 26111S   26166.58335648 -.02487804  00000+0 -31954-1 0  9997
2 69164  53.1595 159.9772 0000824  86.9622 248.7728 15.62120495  5292
STARLINK-37445          
1 69165U 26111T   26166.58335648 -.02484451  00000+0 -35293-1 0  9993
2 69165  53.1595 160.0409 0001012  88.4542 215.6850 15.59525941  5291
STARLINK-37491          
1 69166U 26111U   26166.58335648 -.02598337  00000+0 -26362-1 0  9990
2 69166  53.1595 159.8613 0000857  76.5105 315.8370 15.68128432  5298
STARLINK-37474          
1 69167U 26111V   26165.49285652  .00248272  00000+0  13871-2 0  9997
2 69167  53.1570 165.2100 0000913  76.2100 283.9024 15.78142856  3835
STARLINK-37469          
1 69168U 26111W   26166.24266632  .00035268  00000+0  63884-3 0  9998
2 69168  53.1592 162.8072 0000582 104.9995 255.1079 15.49330184  3937
STARLINK-37515          
1 69169U 26111X   26166.58335648 -.02540151  00000+0 -29952-1 0  9992
2 69169  53.1595 159.8711 0000688  80.6513 306.4024 15.64355089  5299
STARLINK-37437          
1 69170U 26111Y   26166.58335648 -.02564589  00000+0 -26042-1 0  9992
2 69170  53.1596 159.7646 0001225  60.8624  18.4838 15.68053831  5296
STARLINK-37392          
1 69171U 26111Z   26166.58335648 -.02430296  00000+0 -29373-1 0  9990
2 69171  53.1599 159.8123 0000641  88.5492 326.7190 15.63571104  5291
STARLINK-37472          
1 69172U 26111AA  26166.58335648  .00020558  00000+0  37754-3 0  9997
2 69172  53.1594 160.1855 0000755 126.8608 104.0149 15.49246166  5297
STARLINK-37461          
1 69173U 26111AB  26166.29905944  .00023770  00000+0  43377-3 0  9995
2 69173  53.1587 162.4449 0001239  82.1357 277.9792 15.49333570  3947
STARLINK-37333          
1 69174U 26111AC  26166.58335648 -.02564612  00000+0 -33024-1 0  9991
2 69174  53.1601 159.9976 0000952  93.2859 231.4588 15.62174825  5291
STARLINK-37385          
1 69175U 26111AD  26166.29138615  .00022954  00000+0  41936-3 0  9992
2 69175  53.1589 162.3951 0000824 102.0382 258.0720 15.49322075  3946
STARLINK-37414          
1 69176U 26111AE  26166.58335648 -.02547295  00000+0 -31278-1 0  9990
2 69176  53.1593 159.8238 0000702  85.6115 323.9141 15.63352152  5290
STRIX-7                 
1 69177U 26112A   26166.57554041  .00002030  00000+0  17182-3 0  9990
2 69177  44.9056 200.9143 0023299  37.8980 322.3526 15.01430136  3638
SHENZHOU-23 (SZ-23)     
1 69180U 26113A   26166.50532757  .00020720  00000+0  24515-3 0  9992
2 69180  41.4694 332.2368 0007551  63.8756 296.2859 15.60745824293113
STARLINK-37380          
1 69182U 26114A   26166.57287928  .00121557  00000+0  69313-3 0  9994
2 69182  53.1574 210.5657 0001056 108.6276 251.4860 15.78083039  4511
STARLINK-37089          
1 69183U 26114B   26166.57194887  .00121711  00000+0  69419-3 0  9995
2 69183  53.1577 210.5600 0001655  39.2393 320.8748 15.78076171  4512
STARLINK-37428          
1 69184U 26114C   26166.57053916  .00192896  00000+0  10879-2 0  9990
2 69184  53.1576 210.5508 0001045 131.8946 228.2165 15.78095022  4515
STARLINK-37237          
1 69185U 26114D   26166.56778346  .00132848  00000+0  75584-3 0  9997
2 69185  53.1577 210.5316 0000580 128.2398 231.8676 15.78092393  4513
STARLINK-37365          
1 69186U 26114E   26166.56810146  .00160990  00000+0  91219-3 0  9995
2 69186  53.1577 210.5339 0001379  63.8343 296.2820 15.78090764  4516
STARLINK-37209          
1 69187U 26114F   26166.56732753  .00111132  00000+0  63486-3 0  9992
2 69187  53.1577 210.5291 0000881  74.3039 285.8079 15.78080817  4518
STARLINK-37359          
1 69188U 26114G   26166.56688492  .00124960  00000+0  71194-3 0  9991
2 69188  53.1578 210.5264 0000924  78.9105 281.2020 15.78089582  4516
STARLINK-37440          
1 69189U 26114H   26166.58178761 -.00870239  00000+0 -52437-2 0  9994
2 69189  53.1587 209.8849 0001722  16.9537 343.1542 15.79262628  4528
STARLINK-37282          
1 69190U 26114J   26166.56042859  .00140667  00000+0  79908-3 0  9998
2 69190  53.1575 210.4822 0001715 152.1116 207.9998 15.78100133  4516
STARLINK-37422          
1 69191U 26114K   26166.41909786  .00276916  00000+0  13541-2 0  9991
2 69191  53.1579 211.0244 0001267 164.9839 195.1222 15.80999095  4492
STARLINK-37424          
1 69192U 26114L   26166.56054023  .00046936  00000+0  27230-3 0  9991
2 69192  53.1572 210.4826 0006740  35.0959 325.0505 15.78059279  4516
STARLINK-36666          
1 69193U 26114M   26166.54575383 -.00015369  00000+0 -74474-4 0  9998
2 69193  53.1574 210.3866 0001668  78.5703 281.5507 15.80866751  4517
STARLINK-37355          
1 69194U 26114N   26166.54500779  .00082374  00000+0  41644-3 0  9996
2 69194  53.1569 210.3801 0001004  85.3689 274.7448 15.80897845  4510
STARLINK-37166          
1 69195U 26114P   26166.54350680  .00173423  00000+0  86219-3 0  9994
2 69195  53.1569 210.3699 0000939  71.4909 288.6216 15.80934711  4514
